{
    "links": {
        "self": "http://www.neowsapp.com/rest/v1/neo/3553229?api_key=iIulBulltgU6a56xZRHN4H3l9WmuAYTsLGpBGhQ2"
    },
    "id": "3553229",
    "neo_reference_id": "3553229",
    "name": "(2010 XA24)",
    "designation": "2010 XA24",
    "nasa_jpl_url": "http://ssd.jpl.nasa.gov/sbdb.cgi?sstr=3553229",
    "absolute_magnitude_h": 25.0,
    "estimated_diameter": {
        "kilometers": {
            "estimated_diameter_min": 0.02658,
            "estimated_diameter_max": 0.0594346868
        },
        "meters": {
            "estimated_diameter_min": 26.58,
            "estimated_diameter_max": 59.4346868419
        },
        "miles": {
            "estimated_diameter_min": 0.0165160412,
            "estimated_diameter_max": 0.0369309908
        },
        "feet": {
            "estimated_diameter_min": 87.2047272,
            "estimated_diameter_max": 194.9956979785
        }
    },
    "is_potentially_hazardous_asteroid": false,
    "close_approach_data": [
        {
            "close_approach_date": "2010-12-13",
            "close_approach_date_full": "2010-Dec-13 09:51",
            "epoch_date_close_approach": 1292233860000,
            "relative_velocity": {
                "kilometers_per_second": "11.4773074237",
                "kilometers_per_hour": "41318.3067253319",
                "miles_per_hour": "25673.5889760819"
            },
            "miss_distance": {
                "astronomical": "0.0141435635",
                "lunar": "5.5018462015",
                "kilometers": "2115846.973809745",
                "miles": "1314726.344854681"
            },
            "orbiting_body": "Earth"
        },
        {
            "close_approach_date": "2014-04-08",
            "close_approach_date_full": "2014-Apr-08 20:45",
            "epoch_date_close_approach": 1396989900000,
            "relative_velocity": {
                "kilometers_per_second": "23.6630450208",
                "kilometers_per_hour": "85186.9620748238",
                "miles_per_hour": "52931.8654069926"
            },
            "miss_distance": {
                "astronomical": "0.4160625194",
                "lunar": "161.8483200466",
                "kilometers": "62242066.689073678",
                "miles": "38675426.8372176364"
            },
            "orbiting_body": "Earth"
        }
    ],
    "orbital_data": {
        "orbit_id": "11",
        "orbit_determination_date": "2017-04-06 08:55:18",
        "first_observation_date": "2010-12-07",
        "last_observation_date": "2010-12-12",
        "data_arc_in_days": 5,
        "observations_used": 65,
        "orbit_uncertainty": "8",
        "minimum_orbit_intersection": ".012153",
        "jupiter_tisserand_invariant": "3.466",
        "epoch_osculation": "2455539.5",
        "eccentricity": ".5829664288100744",
        "semi_major_axis": "2.146130597780501",
        "inclination": "3.540087731291093",
        "ascending_node_longitude": "71.02963959349601",
        "orbital_period": "1148.372136583989",
        "perihelion_distance": ".8950085074323721",
        "perihelion_argument": "52.88863383017005",
        "aphelion_distance": "3.39725268812863",
        "perihelion_time": "2455574.939200493715",
        "mean_anomaly": "348.8902632071095",
        "mean_motion": ".3134872299069149",
        "equinox": "J2000",
        "orbit_class": {
            "orbit_class_type": "APO",
            "orbit_class_description": "Near-Earth asteroid orbits which cross the Earth’s orbit similar to that of 1862 Apollo",
            "orbit_class_range": "a (semi-major axis) > 1.0 AU; q (perihelion) < 1.017 AU"
        }
    },
    "is_sentry_object": false
}